{
  "type": "FeatureCollection",
  "features": [
    {
      "type": "Feature",
      "properties": {
        "norad_id": 29828,
        "name": "FENGYUN 1C DEB",
        "group": "fengyun-1c-debris",
        "lat": 78.75239719307676,
        "lon": -86.51161009710412,
        "alt_km": 819.351410666568,
        "timestamp": "2025-12-23T09:49:07.354646+00:00",
        "meta_object_name": "FENGYUN 1C DEB",
        "meta_object_id": "1999-025DW",
        "meta_epoch": "2025-12-22T20:00:17.360064",
        "meta_mean_motion": 14.08191455,
        "meta_eccentricity": 0.00614561,
        "meta_inclination": 98.7691,
        "meta_ra_of_asc_node": 42.0192,
        "meta_arg_of_pericenter": 128.0917,
        "meta_mean_anomaly": 293.0363,
        "meta_ephemeris_type": 0,
        "meta_classification_type": "U",
        "meta_norad_cat_id": 29828,
        "meta_element_set_no": 999,
        "meta_rev_at_epoch": 96879,
        "meta_bstar": 0.00071518363,
        "meta_mean_motion_dot": 1.199e-05,
        "meta_mean_motion_ddot": 0,
        "tle_line1": "1 29828U 99025DW  25356.83353426  .00001199  00000+0  71518-3 0  9993",
        "tle_line2": "2 29828  98.7691  42.0192 0061456 128.0917 293.0363 14.08191455968792"
      },
      "geometry": {
        "type": "Point",
        "coordinates": [
          -86.51161009710412,
          78.75239719307676
        ]
      }
    },
    {
      "type": "Feature",
      "properties": {
        "norad_id": 29832,
        "name": "FENGYUN 1C DEB",
        "group": "fengyun-1c-debris",
        "lat": -2.9410610957056913,
        "lon": -70.99869128418209,
        "alt_km": 653.372178918903,
        "timestamp": "2025-12-23T09:49:07.354657+00:00",
        "meta_object_name": "FENGYUN 1C DEB",
        "meta_object_id": "1999-025EA",
        "meta_epoch": "2025-12-22T19:46:25.182048",
        "meta_mean_motion": 14.56574828,
        "meta_eccentricity": 0.019225,
        "meta_inclination": 98.8195,
        "meta_ra_of_asc_node": 108.8392,
        "meta_arg_of_pericenter": 252.1927,
        "meta_mean_anomaly": 105.8213,
        "meta_ephemeris_type": 0,
        "meta_classification_type": "U",
        "meta_norad_cat_id": 29832,
        "meta_element_set_no": 999,
        "meta_rev_at_epoch": 402,
        "meta_bstar": 0.00016877361,
        "meta_mean_motion_dot": 9e-06,
        "meta_mean_motion_ddot": 0,
        "tle_line1": "1 29832U 99025EA  25356.82390257  .00000900  00000+0  16877-3 0  9996",
        "tle_line2": "2 29832  98.8195 108.8392 0192250 252.1927 105.8213 14.56574828  4020"
      },
      "geometry": {
        "type": "Point",
        "coordinates": [
          -70.99869128418209,
          -2.9410610957056913
        ]
      }
    },
    {
      "type": "Feature",
      "properties": {
        "norad_id": 29833,
        "name": "FENGYUN 1C DEB",
        "group": "fengyun-1c-debris",
        "lat": 76.62936896496595,
        "lon": -60.951015006087246,
        "alt_km": 635.1559062918868,
        "timestamp": "2025-12-23T09:49:07.354667+00:00",
        "meta_object_name": "FENGYUN 1C DEB",
        "meta_object_id": "1999-025EB",
        "meta_epoch": "2025-12-22T22:10:58.185120",
        "meta_mean_motion": 14.91315542,
        "meta_eccentricity": 0.00886102,
        "meta_inclination": 99.0781,
        "meta_ra_of_asc_node": 340.7659,
        "meta_arg_of_pericenter": 223.9309,
        "meta_mean_anomaly": 135.4838,
        "meta_ephemeris_type": 0,
        "meta_classification_type": "U",
        "meta_norad_cat_id": 29833,
        "meta_element_set_no": 999,
        "meta_rev_at_epoch": 723,
        "meta_bstar": 0.0010981136,
        "meta_mean_motion_dot": 0.00011734,
        "meta_mean_motion_ddot": 0,
        "tle_line1": "1 29833U 99025EB  25356.92428455  .00011734  00000+0  10981-2 0  9996",
        "tle_line2": "2 29833  99.0781 340.7659 0088610 223.9309 135.4838 14.91315542  7235"
      },
      "geometry": {
        "type": "Point",
        "coordinates": [
          -60.951015006087246,
          76.62936896496595
        ]
      }
    },
    {
      "type": "Feature",
      "properties": {
        "norad_id": 29835,
        "name": "FENGYUN 1C DEB",
        "group": "fengyun-1c-debris",
        "lat": -50.05953598414483,
        "lon": -64.50524024711594,
        "alt_km": 837.2967895248048,
        "timestamp": "2025-12-23T09:49:07.354678+00:00",
        "meta_object_name": "FENGYUN 1C DEB",
        "meta_object_id": "1999-025ED",
        "meta_epoch": "2025-12-22T08:04:14.101248",
        "meta_mean_motion": 14.43378379,
        "meta_eccentricity": 0.01674553,
        "meta_inclination": 99.0261,
        "meta_ra_of_asc_node": 125.3011,
        "meta_arg_of_pericenter": 8.8282,
        "meta_mean_anomaly": 51.9292,
        "meta_ephemeris_type": 0,
        "meta_classification_type": "U",
        "meta_norad_cat_id": 29835,
        "meta_element_set_no": 999,
        "meta_rev_at_epoch": 99633,
        "meta_bstar": 4.9098379e-05,
        "meta_mean_motion_dot": 1.38e-06,
        "meta_mean_motion_ddot": 0,
        "tle_line1": "1 29835U 99025ED  25356.33627432  .00000138  00000+0  49098-4 0  9998",
        "tle_line2": "2 29835  99.0261 125.3011 0167455   8.8282  51.9292 14.43378379996332"
      },
      "geometry": {
        "type": "Point",
        "coordinates": [
          -64.50524024711594,
          -50.05953598414483
        ]
      }
    },
    {
      "type": "Feature",
      "properties": {
        "norad_id": 29836,
        "name": "FENGYUN 1C DEB",
        "group": "fengyun-1c-debris",
        "lat": 6.1245217186121845,
        "lon": -85.99170928755733,
        "alt_km": 604.6336276536349,
        "timestamp": "2025-12-23T09:49:07.354688+00:00",
        "meta_object_name": "FENGYUN 1C DEB",
        "meta_object_id": "1999-025EE",
        "meta_epoch": "2025-12-22T05:17:59.571168",
        "meta_mean_motion": 14.54159624,
        "meta_eccentricity": 0.0154945,
        "meta_inclination": 98.1879,
        "meta_ra_of_asc_node": 91.9601,
        "meta_arg_of_pericenter": 173.117,
        "meta_mean_anomaly": 263.4641,
        "meta_ephemeris_type": 0,
        "meta_classification_type": "U",
        "meta_norad_cat_id": 29836,
        "meta_element_set_no": 999,
        "meta_rev_at_epoch": 63693,
        "meta_bstar": 0.00065354249,
        "meta_mean_motion_dot": 3.193e-05,
        "meta_mean_motion_ddot": 0,
        "tle_line1": "1 29836U 99025EE  25356.22082837  .00003193  00000+0  65354-3 0  9997",
        "tle_line2": "2 29836  98.1879  91.9601 0154945 173.1170 263.4641 14.54159624636930"
      },
      "geometry": {
        "type": "Point",
        "coordinates": [
          -85.99170928755733,
          6.1245217186121845
        ]
      }
    },
    {
      "type": "Feature",
      "properties": {
        "norad_id": 29841,
        "name": "FENGYUN 1C DEB",
        "group": "fengyun-1c-debris",
        "lat": -72.0799166504579,
        "lon": 96.30224973838781,
        "alt_km": 646.3052574474586,
        "timestamp": "2025-12-23T09:49:07.354698+00:00",
        "meta_object_name": "FENGYUN 1C DEB",
        "meta_object_id": "1999-025EK",
        "meta_epoch": "2025-12-22T19:37:51.660192",
        "meta_mean_motion": 14.46518041,
        "meta_eccentricity": 0.01998859,
        "meta_inclination": 98.8201,
        "meta_ra_of_asc_node": 304.3817,
        "meta_arg_of_pericenter": 303.3657,
        "meta_mean_anomaly": 115.9644,
        "meta_ephemeris_type": 0,
        "meta_classification_type": "U",
        "meta_norad_cat_id": 29841,
        "meta_element_set_no": 999,
        "meta_rev_at_epoch": 99469,
        "meta_bstar": 0.00040304842,
        "meta_mean_motion_dot": 1.801e-05,
        "meta_mean_motion_ddot": 0,
        "tle_line1": "1 29841U 99025EK  25356.81795903  .00001801  00000+0  40305-3 0  9996",
        "tle_line2": "2 29841  98.8201 304.3817 0199885 303.3657 115.9644 14.46518041994698"
      },
      "geometry": {
        "type": "Point",
        "coordinates": [
          96.30224973838781,
          -72.0799166504579
        ]
      }
    },
    {
      "type": "Feature",
      "properties": {
        "norad_id": 29842,
        "name": "FENGYUN 1C DEB",
        "group": "fengyun-1c-debris",
        "lat": 64.67745961190005,
        "lon": -76.11011770352445,
        "alt_km": 612.5007603041004,
        "timestamp": "2025-12-23T09:49:07.354708+00:00",
        "meta_object_name": "FENGYUN 1C DEB",
        "meta_object_id": "1999-025EL",
        "meta_epoch": "2025-12-22T05:38:26.337120",
        "meta_mean_motion": 14.60369279,
        "meta_eccentricity": 0.0109062,
        "meta_inclination": 98.5691,
        "meta_ra_of_asc_node": 84.094,
        "meta_arg_of_pericenter": 136.2597,
        "meta_mean_anomaly": 289.0478,
        "meta_ephemeris_type": 0,
        "meta_classification_type": "U",
        "meta_norad_cat_id": 29842,
        "meta_element_set_no": 999,
        "meta_rev_at_epoch": 99492,
        "meta_bstar": 0.0013138694,
        "meta_mean_motion_dot": 6.862e-05,
        "meta_mean_motion_ddot": 0,
        "tle_line1": "1 29842U 99025EL  25356.23502705  .00006862  00000+0  13139-2 0  9995",
        "tle_line2": "2 29842  98.5691  84.0940 0109062 136.2597 289.0478 14.60369279994929"
      },
      "geometry": {
        "type": "Point",
        "coordinates": [
          -76.11011770352445,
          64.67745961190005
        ]
      }
    }
  ]
}